NORAD_CAT_ID,OBJECT_NAME,OBJECT_TYPE,EPOCH,MEAN_MOTION,ECCENTRICITY,INCLINATION,RA_OF_ASC_NODE,ARG_OF_PERICENTER,MEAN_ANOMALY,BSTAR,MEAN_MOTION_DOT,MEAN_MOTION_DDOT,TLE_LINE0,TLE_LINE1,TLE_LINE2,SEMIMAJOR_AXIS,PERIOD,APOGEE,PERIGEE,DECAYED
52460.0,STARLINK-3865,PAYLOAD,2024-08-14 19:38:06,15.08832963,0.0001302,53.2163,106.3028,94.6147,265.4994,-0.00010893,-2.021e-05,0.0,0 STARLINK-3865,1 52460U 22049K   24227.81813360 -.00002021  00000-0 -10893-3 0  9992,2 52460  53.2163 106.3028 0001302  94.6147 265.4994 15.08832963126076,6917.902,95.438,540.668,538.866,0.0
52460.0,STARLINK-3865,PAYLOAD,2024-08-14 22:48:53,15.08827832,0.0001292,53.2167,105.7082,93.8939,266.22,-0.00014609,-2.611e-05,0.0,0 STARLINK-3865,1 52460U 22049K   24227.95061744 -.00002611  00000-0 -14609-3 0  9992,2 52460  53.2167 105.7082 0001292  93.8939 266.2200 15.08827832125933,6917.918,95.438,540.676,538.889,0.0
52460.0,STARLINK-3865,PAYLOAD,2024-08-15 08:21:12,15.0882287,0.0001312,53.2165,103.9244,92.1839,267.9304,-1.2475e-05,-4.86e-06,0.0,0 STARLINK-3865,1 52460U 22049K   24228.34806572 -.00000486  00000-0 -12475-4 0  9990,2 52460  53.2165 103.9244 0001312  92.1839 267.9304 15.08822870125991,6917.933,95.439,540.705,538.89,0.0
52460.0,STARLINK-3865,PAYLOAD,2024-08-15 22:39:40,15.08838244,0.0001088,53.2153,101.2465,91.0592,269.0524,0.00038684,5.874e-05,0.0,0 STARLINK-3865,1 52460U 22049K   24228.94422248  .00005874  00000-0  38684-3 0  9993,2 52460  53.2153 101.2465 0001088  91.0592 269.0524 15.08838244126088,6917.886,95.438,540.503,538.998,0.0
52460.0,STARLINK-3865,PAYLOAD,2024-08-17 01:41:13,15.08855594,0.000104,53.2146,96.1899,79.4368,280.6741,0.0003587,5.428e-05,0.0,0 STARLINK-3865,1 52460U 22049K   24230.07028980  .00005428  00000-0  35870-3 0  9994,2 52460  53.2146  96.1899 0001040  79.4368 280.6741 15.08855594126416,6917.833,95.437,540.417,538.978,0.0
52460.0,STARLINK-3865,PAYLOAD,2024-08-17 23:56:36,15.08867982,0.000117,53.2177,92.0208,70.5687,289.5432,-0.0012166,-0.00019612,0.0,0 STARLINK-3865,1 52460U 22049K   24230.99764337 -.00019612  00000-0 -12166-2 0  9992,2 52460  53.2177  92.0208 0001170  70.5687 289.5432 15.08867982126553,6917.795,95.436,540.469,538.85,0.0
52460.0,STARLINK-3865,PAYLOAD,2024-08-18 20:36:39,15.08821434,0.000124,53.2164,88.1626,117.0423,243.0696,0.00015155,2.124e-05,0.0,0 STARLINK-3865,1 52460U 22049K   24231.85879102  .00002124  00000-0  15155-3 0  9995,2 52460  53.2164  88.1626 0001240 117.0423 243.0696 15.08821434126685,6917.937,95.439,540.66,538.944,0.0
52460.0,STARLINK-3865,PAYLOAD,2024-08-19 07:44:21,15.08829184,0.0001236,53.2168,86.0815,93.0588,267.0545,0.00023785,3.498e-05,0.0,0 STARLINK-3865,1 52460U 22049K   24232.32247428  .00003498  00000-0  23785-3 0  9991,2 52460  53.2168  86.0815 0001236  93.0588 267.0545 15.08829184126595,6917.913,95.438,540.634,538.923,0.0
52460.0,STARLINK-3865,PAYLOAD,2024-08-19 23:38:12,15.08843374,0.0001212,53.2165,83.1076,88.5502,271.5629,0.00026485,3.93e-05,0.0,0 STARLINK-3865,1 52460U 22049K   24232.98487100  .00003930  00000-0  26485-3 0  9997,2 52460  53.2165  83.1076 0001212  88.5502 271.5629 15.08843374126857,6917.87,95.437,540.574,538.897,0.0
52460.0,STARLINK-3865,PAYLOAD,2024-08-20 07:35:08,15.08844291,0.0001141,53.216,81.6204,90.4454,269.6668,0.00026146,3.876e-05,0.0,0 STARLINK-3865,1 52460U 22049K   24233.31607080  .00003876  00000-0  26146-3 0  9999,2 52460  53.2160  81.6204 0001141  90.4454 269.6668 15.08844291126745,6917.867,95.437,540.522,538.943,0.0
52460.0,STARLINK-3865,PAYLOAD,2024-08-20 23:28:59,15.08856264,0.0001051,53.2175,78.6468,90.6788,269.4325,0.0003146,4.725e-05,0.0,0 STARLINK-3865,1 52460U 22049K   24233.97846412  .00004725  00000-0  31460-3 0  9994,2 52460  53.2175  78.6468 0001051  90.6788 269.4325 15.08856264126843,6917.831,95.437,540.423,538.969,0.0
52460.0,STARLINK-3865,PAYLOAD,2024-08-21 20:09:00,15.0883996,0.0001245,53.2175,74.7802,58.2194,301.8919,7.4415e-05,8.97e-06,0.0,0 STARLINK-3865,1 52460U 22049K   24234.83959306  .00000897  00000-0  74415-4 0  9991,2 52460  53.2175  74.7802 0001245  58.2194 301.8919 15.08839960127135,6917.881,95.438,540.607,538.884,0.0
